     2.100          NAVIGATION                              RINEX VERSION / TYPE
fic2rin                                 03/26/2012 00:06:27 PGM / RUN BY / DATE
                                                            END OF HEADER
29 12  3 25  6  0  0.0  .296986661851D-03  .363797880709D-11  .000000000000D+00
     .880000000000D+02 -.186875000000D+02  .503235247482D-08 -.126696150455D+00
    -.838190317154D-06  .231956248172D-02  .476092100143D-05  .515360279846D+04
     .216000000000D+05 -.558793544769D-08 -.110368819622D+01 -.167638063431D-07
     .962871090029D+00  .291218750000D+03 -.117419893561D+01 -.834034740895D-08
    -.121433629627D-09  .100000000000D+01  .168100000000D+04  .000000000000D+00
     .340000000000D+01  .000000000000D+00 -.931322574615D-08  .880000000000D+02
     .144060000000D+05  .400000000000D+01
31 12  3 25  6  0  0.0  .223459210247D-03  .432009983342D-11  .000000000000D+00
     .310000000000D+02 -.938125000000D+02  .388016162431D-08  .522245817269D+00
    -.483915209770D-05  .793691084255D-02  .927038490772D-05  .515362038994D+04
     .216000000000D+05  .558793544769D-08  .305860821007D+01 -.137835741043D-06
     .981107405484D+00  .209406250000D+03 -.879358765691D+00 -.789032866386D-08
    -.138577200868D-09  .100000000000D+01  .168100000000D+04  .000000000000D+00
     .240000000000D+01  .000000000000D+00 -.130385160446D-07  .310000000000D+02
     .144060000000D+05  .400000000000D+01
32 12  3 25  6  0  0.0 -.424568075687D-03 -.477484718431D-11  .000000000000D+00
     .460000000000D+02  .910000000000D+02  .471341061819D-08  .113368618285D+01
     .468268990517D-05  .118297078880D-01  .718981027603D-05  .515371853638D+04
     .216000000000D+05  .303611159325D-06  .103450945106D+01  .149011611938D-07
     .952126205432D+00  .232250000000D+03 -.600076099030D+00 -.818212653270D-08
     .230366738556D-09  .100000000000D+01  .168100000000D+04  .000000000000D+00
     .240000000000D+01  .000000000000D+00 -.279396772385D-08  .460000000000D+02
     .144060000000D+05  .400000000000D+01
18 12  3 25  5 59 44.0  .187782105058D-03  .181898940355D-11  .000000000000D+00
     .500000000000D+01  .113406250000D+03  .506378235543D-08 -.144396284929D+01
     .585988163948D-05  .129769697087D-01  .775046646595D-05  .515368220329D+04
     .215840000000D+05  .394880771637D-06  .957211864585D+00  .502914190292D-07
     .930261102663D+00  .214156250000D+03 -.219101492793D+01 -.831106047474D-08
     .208580116771D-09  .100000000000D+01  .168100000000D+04  .000000000000D+00
     .240000000000D+01  .000000000000D+00 -.107102096081D-07  .500000000000D+01
     .169560000000D+05  .400000000000D+01
27 12  3 25  5 59 44.0  .370356719941D-03  .397903932026D-11  .000000000000D+00
     .180000000000D+02 -.943125000000D+02  .375979946788D-08  .291024733713D+01
    -.486336648464D-05  .218172972091D-01  .969134271145D-05  .515376461220D+04
     .215840000000D+05  .339001417160D-06  .300310616023D+01  .290572643280D-06
     .982257755024D+00  .196000000000D+03 -.110607115957D+01 -.745745349001D-08
    -.241795786051D-09  .100000000000D+01  .168100000000D+04  .000000000000D+00
     .240000000000D+01  .000000000000D+00 -.419095158577D-08  .180000000000D+02
     .214860000000D+05  .400000000000D+01
18 12  3 25  7 59 44.0  .187795143574D-03  .181898940355D-11  .000000000000D+00
     .600000000000D+01  .109062500000D+03  .524914721948D-08 -.393698834062D+00
     .572949647903D-05  .129773858935D-01  .739470124245D-05  .515368433380D+04
     .287840000000D+05  .372529029846D-08  .957150563929D+00  .184401869774D-06
     .930260731082D+00  .222531250000D+03 -.219109978742D+01 -.871000566384D-08
     .180721813503D-09  .100000000000D+01  .168100000000D+04  .000000000000D+00
     .240000000000D+01  .000000000000D+00 -.107102096081D-07  .600000000000D+01
     .216060000000D+05  .400000000000D+01
27 12  3 25  7 59 44.0  .370385125279D-03  .397903932026D-11  .000000000000D+00
     .290000000000D+02 -.749687500000D+02  .372372653673D-08 -.232284944062D+01
    -.354088842869D-05  .218198391376D-01  .962801277637D-05  .515375978279D+04
     .287840000000D+05  .109896063805D-06  .300305225462D+01  .376254320145D-06
     .982256776332D+00  .197875000000D+03 -.110603816638D+01 -.740888003816D-08
    -.129648257513D-09  .100000000000D+01  .168100000000D+04  .000000000000D+00
     .240000000000D+01  .000000000000D+00 -.419095158577D-08  .290000000000D+02
     .216060000000D+05  .400000000000D+01
 1 12  3 25  8  0  0.0  .238511711359D-03  .625277607469D-11  .000000000000D+00
     .150000000000D+02 -.230625000000D+02  .447947230229D-08  .172501338077D+01
    -.113248825073D-05  .572989927605D-03  .104308128357D-04  .515365957832D+04
     .288000000000D+05 -.614672899246D-07 -.104916476250D+00 -.931322574615D-08
     .960616620624D+00  .177562500000D+03  .630291791280D+00 -.791068665471D-08
    -.448232956416D-09  .100000000000D+01  .168100000000D+04  .000000000000D+00
     .240000000000D+01  .000000000000D+00  .838190317154D-08  .150000000000D+02
     .216060000000D+05  .400000000000D+01
 2 12  3 25  8  0  0.0  .384135171771D-03  .147792889038D-11  .000000000000D+00
     .810000000000D+02 -.226562500000D+02  .478341353409D-08  .306974859018D+01
    -.126659870148D-05  .110706567066D-01  .105593353510D-04  .515367411613D+04
     .288000000000D+05 -.162050127983D-06 -.117268505093D+00 -.502914190292D-07
     .939170177213D+00  .163281250000D+03 -.283080042995D+01 -.794247369305D-08
    -.475376944215D-09  .100000000000D+01  .168100000000D+04  .000000000000D+00
     .240000000000D+01  .000000000000D+00 -.172294676304D-07  .810000000000D+02
     .216060000000D+05  .400000000000D+01
 3 12  3 25  8  0  0.0  .270660966635D-04  .511590769747D-11  .000000000000D+00
     .490000000000D+02 -.265625000000D+01  .567880797372D-08 -.306336284159D+01
    -.281259417534D-06  .150948667433D-01  .401958823204D-05  .515370145607D+04
     .288000000000D+05  .193715095520D-06 -.128020590903D+01 -.208616256714D-06
     .930431826666D+00  .283781250000D+03  .117652794508D+01 -.842642242289D-08
     .101432796512D-09  .100000000000D+01  .168100000000D+04  .000000000000D+00
     .340000000000D+01  .000000000000D+00 -.419095158577D-08  .490000000000D+02
     .216060000000D+05  .400000000000D+01
 4 12  3 25  8  0  0.0  .133266206831D-03  .114823706099D-10  .000000000000D+00
     .540000000000D+02 -.203750000000D+02  .500842290663D-08 -.109848220328D+00
    -.920146703720D-06  .100105584133D-01  .102557241917D-04  .515357901955D+04
     .288000000000D+05 -.372529029846D-07 -.100293511753D+00  .137835741043D-06
     .938235376949D+00  .169093750000D+03  .843277756486D+00 -.835356224511D-08
    -.465019369923D-09  .100000000000D+01  .168100000000D+04  .000000000000D+00
     .240000000000D+01  .000000000000D+00 -.605359673500D-08  .540000000000D+02
     .216060000000D+05  .400000000000D+01
 5 12  3 25  8  0  0.0 -.297594815493D-03 -.420641299570D-11  .000000000000D+00
     .600000000000D+02  .985000000000D+02  .457840499466D-08 -.125399151277D+01
     .511668622494D-05  .267997581977D-02  .790692865849D-05  .515363250732D+04
     .288000000000D+05  .186264514923D-07  .945452084960D+00 -.633299350739D-07
     .951545094873D+00  .223593750000D+03  .287009371321D+00 -.812676708390D-08
     .187150652719D-09  .100000000000D+01  .168100000000D+04  .000000000000D+00
     .240000000000D+01  .000000000000D+00 -.102445483208D-07  .600000000000D+02
     .216060000000D+05  .400000000000D+01
 6 12  3 25  8  0  0.0  .318521633744D-04 -.227373675443D-12  .000000000000D+00
     .820000000000D+02 -.100312500000D+02  .560273337633D-08 -.114497678710D+01
    -.631436705589D-06  .718643295113D-02  .450201332569D-05  .515368517876D+04
     .288000000000D+05 -.651925802231D-07 -.120404741933D+01 -.931322574615D-07
     .937383034063D+00  .281875000000D+03 -.588494767615D+00 -.866071789652D-08
     .102504269714D-09  .100000000000D+01  .168100000000D+04  .000000000000D+00
     .240000000000D+01  .000000000000D+00 -.512227416039D-08  .820000000000D+02
     .216060000000D+05  .400000000000D+01
 7 12  3 25  8  0  0.0  .671320594847D-04  .306954461848D-11  .000000000000D+00
     .450000000000D+02 -.857812500000D+02  .400445251581D-08  .160645096706D+01
    -.443868339062D-05  .516327074729D-02  .905431807041D-05  .515361957741D+04
     .288000000000D+05 -.391155481339D-07  .305592498718D+01  .428408384323D-07
     .976022830354D+00  .213531250000D+03 -.301738554414D+01 -.779389607563D-08
    -.204294223960D-09  .100000000000D+01  .168100000000D+04  .000000000000D+00
     .240000000000D+01  .000000000000D+00 -.107102096081D-07  .450000000000D+02
     .216060000000D+05  .400000000000D+01
 8 12  3 25  8  0  0.0  .891275703907D-06  .113686837722D-12  .000000000000D+00
     .840000000000D+02 -.769062500000D+02  .346443002170D-08  .973740084206D+00
    -.389851629734D-05  .121312978445D-01  .982359051704D-05  .515369772148D+04
     .288000000000D+05 -.745058059692D-08  .313783283417D+01  .245869159698D-06
     .998144473364D+00  .211281250000D+03 -.297552288519D+01 -.753531387607D-08
    -.182864759908D-09  .100000000000D+01  .168100000000D+04  .000000000000D+00
     .240000000000D+01  .000000000000D+00 -.465661287308D-08  .840000000000D+02
     .216060000000D+05  .400000000000D+01
 9 12  3 25  8  0  0.0  .146983657032D-03  .238742359215D-11  .000000000000D+00
     .107000000000D+03 -.802187500000D+02  .387230415415D-08  .933269068506D+00
    -.437721610069D-05  .172982217046D-01  .976026058197D-05  .515363290405D+04
     .288000000000D+05 -.234693288803D-06  .302974088795D+01 -.156462192535D-06
     .984785762314D+00  .207625000000D+03  .160537766210D+01 -.801033366255D-08
    -.187864968187D-09  .100000000000D+01  .168100000000D+04  .000000000000D+00
     .240000000000D+01  .000000000000D+00 -.558793544769D-08  .107000000000D+03
     .216060000000D+05  .400000000000D+01
